#dP2022  5 13 12  0  0.00000000      96 __u+U ITR00 EXT  IAC
## 2209 475200.00000000   900.00000000 59712 0.5000000000000
+  116   C06C07C08C09C10C11C12C13C14C16C19C20C21C22C23C24C25
+        C26C27C28C29C30C32C33C34C35C36C37C38C39C40C41C42C43
+        C44C45C46E02E03E04E05E07E08E09E10E11E12E13E14E15E18
+        E19E21E24E25E26E27E30E31E33E34E36G01G02G03G04G05G06
+        G07G08G09G10G11G12G13G14G15G16G17G18G19G20G21G22G23
+        G24G25G26G27G28G29G30G31G32J02J03R01R02R03R04R05R07
+        R08R09R11R12R13R14R15R17R18R19R20R21R22R24  0  0  0
++        11  9  8 11  9  8  8  8  9 10  9  7  8  8  8  9  8
++         8 10  7  8 10  9  8  8  8  9  9 10 10  9  9  8  9
++         8  9  9  8  8  8  8  8  8  9  7  8  7  7  7  7  7
++         8  8  8  7  8  8  7  8  7  7  6  7  7  8  8  7  8
++         9  6  7  7  7  8  7  6  7  7  8 10  8  7  5  7  8
++         7  7  8  6  7  7  8  9  8  9  7  8  8 10  8  8  8
++         7  7  6  8  8  8  7  9  9  9  9  6  8  6  0  0  0
%c M  cc GPS ccc cccc cccc cccc cccc ccccc ccccc ccccc ccccc
%c cc cc ccc ccc cccc cccc cccc cccc ccccc ccccc ccccc ccccc
%f  0.0000000  0.000000000  0.00000000000  0.000000000000000
%f  0.0000000  0.000000000  0.00000000000  0.000000000000000
%i    0    0    0    0      0      0      0      0         0
%i    0    0    0    0      0      0      0      0         0
/* IAC                                ULTRA-RAPID PREDICTION
/* S/V CLOCKS ARE ALIGNED TO GNSS TIME                      
/* G:C1WC2W R:C1PC2P E:C1XC5X C:C2IC6I J:C1CC2S             
/* PCV:IGS14_2196 OL/AL:FES2004  NONE     YN ORB:CoN CLK:CoN
*  2022 05 14 10 15  0.00000000
PC06 -18188.908312  29831.627880 -23736.052821    -17.629613
PC07  -6755.317184  39494.338084 -12890.584340   -164.814357
PC08  -2845.984700  21857.413072  35970.416403    312.105601
PC09 -10583.454173  28545.778920 -29004.975581   -786.347976
PC10   -232.994166  41486.989832  -5664.783910    132.303376
PC11  13015.672361   9632.089286  22788.848408    351.449101
PC12  -5472.991174  18816.050677  19892.628068   -616.326870
PC13   5237.114515  25890.225979  33062.951424    -33.201799
PC14  11680.904834  20107.930554 -15355.002639    474.669697
PC16 -21297.950592  29444.728520 -21421.427794    131.106759
PC19 -15007.927196 -10687.361915  20997.256891    870.052875
PC20  -7442.036365 -25407.471625   8897.607645   -914.497492
PC21  -5181.196070  25749.346391   9407.977433   -288.620290
PC22 -14226.623197  10793.523087  21441.944144   -970.488218
PC23  21945.312630  -2425.437372  17071.754305   -930.124381
PC24  13057.440008  19257.001089 -15433.207285   -964.278321
PC25  25636.907732  10854.904255   2064.072784   -736.867881
PC26  -4604.813456  15747.853278 -22586.021626    738.035386
PC27  13929.194203 -19903.447052 -13742.028200    722.986894
PC28  24556.240190 -12926.114186   2948.502407     66.595271
PC29 -20874.944729  -1330.883560 -18485.715919    554.477411
PC30  -4731.193287 -15727.980152 -22569.091002    498.460273
PC32   4969.574697 -25808.055930  -9383.956925   -963.219914
PC33  15060.313361  10653.501365 -20921.270428   -965.840105
PC34   5714.965510  15211.758398  22673.202361   -403.853146
PC35 -24334.406305  13126.710987  -3935.088182    273.415289
PC36 -25242.640181 -11792.664790  -1537.503464   -964.222637
PC37   6259.416436 -15037.504413  22673.783877   -912.191495
PC38 -11602.798898  20169.803650  35191.675115    232.038205
PC39 -24894.022758  30117.024723 -16038.510616     34.969899
PC40 -11404.941967  36840.749277 -16869.547341    268.938381
PC41  14322.309339 -10382.869090 -21527.850768   -965.921287
PC42   6834.515299  25860.989084  -7860.101919   -968.914712
PC43  20495.548348   2078.240824  18799.331694   -924.202767
PC44 -13413.429581  20440.896347  13470.496200    659.182593
PC45 -21719.111693   2587.931840 -17316.457930    756.676619
PC46 -14461.933667 -19021.357899  14389.477406   -323.883095
PE02  20722.779973  17941.615199  11189.310799    299.082545
PE03  15020.917646   8129.335000 -24170.377387   -558.121661
PE04 -20229.871530  12531.496989  17614.125770  -1027.646970
PE05    859.483205  24454.277787 -16644.329442   -181.753394
PE07  13566.984412 -26312.077514   -419.381524   -668.359417
PE08  20079.602093 -12942.446689 -17479.097737   -528.870193
PE09 -13417.511196  26372.624556    334.793281   -517.814618
PE10 -23648.429582  10741.305414  14187.976758   -512.921144
PE11 -14437.835293  14711.782538  21238.349054   3674.016605
PE12 -28672.060784   5199.790914   5267.138150   4614.444182
PE13  15086.449637 -14501.513434 -20931.867457    428.669575
PE14   1877.885137 -27048.115042 -17755.067937  -1838.010554
PE15  28682.409227  -5172.423149  -5138.345502    745.747988
PE18  -2651.440493  19942.172809  12203.831651  -1450.483601
PE19 -13489.250999 -10627.483945  24121.600786  -4643.774370
PE21 -11929.103492 -26300.535686   6485.112486   -734.102530
PE24  -5367.158709  19213.889479 -21889.602381   -614.218872
PE25  11739.875861  26325.948152  -6738.670078   -573.887729
PE26  -8315.938744 -15221.548362 -23987.940353  -1143.072278
PE27   4278.059757 -20019.657859  21377.251826   -298.467864
PE30  18308.980578   -927.487155  23232.153115   -509.327205
PE31 -17811.001297   2023.579169 -23549.221528   -496.604446
PE33 -25304.466682  -7158.349881 -13602.031368   -456.649243
PE34  25432.161136   6994.339271  13424.163072   -516.983312
PE36   7239.587604  15246.517725  24312.607814   -373.461260
PG01 -14175.810029 -13309.613611 -18551.957601    363.278739
PG02  -9485.325266  14538.624352  20796.761913   -653.254281
PG03 -12929.266830 -23198.523476   1754.334192   -243.739093
PG04  -5267.132402 -16676.897055  19973.938376   -167.367325
PG05   3039.382040  23202.562572  12256.160241    -81.798191
PG06 -23064.232759   6256.176979  11741.622430    302.888700
PG07 -25420.891088  -6186.802237   6320.065365    322.054291
PG08   1924.298185 -21996.362539 -14539.896375    -67.954850
PG09 -13872.298218  -6692.177017  21573.417624   -336.836603
PG10  16010.790188   -108.571305 -21097.100285   -414.020276
PG11 -10568.930550  13136.120735  20514.323204    -25.145454
PG12   8741.388359  25072.888354  -2207.549351   -215.258179
PG13 -11579.387371  22245.648048  -8628.152439    311.347117
PG14 -16677.738873  -1243.653107 -20654.980303   -108.209422
PG15   1708.296862  21966.348350 -15023.009478    -61.354103
PG16   3272.571421 -20862.667424  15545.650716   -500.743918
PG17 -19667.665740  10046.112527 -14357.765057    612.480714
PG18  25025.233279   6404.505676   6413.737119    170.468408
PG19 -20055.849536  15037.185250  -8715.964285    157.155024
PG20  -4693.256458  17622.785862  19387.377144    515.097836
PG21  -3937.654507 -14731.949465 -21164.974480    161.072161
PG22  18742.584955 -17769.527092  -5358.987074    258.915404
PG23  18282.005862  10923.942806 -15945.293247    -21.779544
PG24  10441.697418  14584.625242 -20004.833919    241.303062
PG25  17035.939541  17679.984518  10182.712993    324.531208
PG26  10583.669010 -12340.340876  20872.082229    205.526181
PG27  11881.706256 -23180.764912  -4160.139989    202.594004
PG28 -12531.592769   8345.443179 -21387.958369    358.146583
PG29  12589.500921   7802.479077  21996.466625   -513.487724
PG30 -26482.964714    372.411588  -3285.475223   -527.834374
PG31  21862.879891  -7599.786673  13305.037464   -177.557730
PG32  19163.718239 -12581.782428 -13101.461079   -126.813665
PJ02 -19895.594713  21900.273912 -25415.570010     -0.123860
PJ03 -29901.335056  28810.361269  12655.827104     -2.142947
PR01  -6227.664201 -17957.555570  17028.257844      8.689416
PR02 -11192.346101   2112.667170  22876.817831    518.359426
PR03  -9344.230919  19184.906259  14065.003744     56.613443
PR04  -2418.885767  25280.048857  -2402.743463    141.441430
PR05   5788.537020  17553.995956 -17572.284397     92.842914
PR07   9093.952625 -19682.734732 -13356.959015     35.063717
PR08   2175.887115 -25266.828308   2692.551621    -65.131271
PR09  20366.344442   6590.040705  13829.990526     54.970109
PR11  -6027.664904 -15794.239801  19117.440075     39.023625
PR12 -19058.826944 -16601.122120   3401.276764     18.425705
PR13 -20647.735110  -7755.918944 -12829.490824    -22.283618
PR14  -9583.118517   6522.452891 -22712.520342     25.714798
PR15   6549.332680  16222.487793 -18543.645018     96.120300
PR17 -20614.580620  12422.509652   8400.345731    525.932754
PR18  -7125.795870  12869.162728  20863.385638    116.793748
PR19   8964.722940   7443.017080  22684.635421   -188.966773
PR20  23186.563896  -3725.572903   9903.001599    -70.553458
PR21  19876.756568 -12643.809381  -9817.517012   -301.141762
PR22   6203.306850 -12583.148120 -21296.900604   -183.084718
PR24 -23369.461295   4526.440096  -9144.552939     93.666379
EOF
